NAVSTAR 67 (USA 239)
1 38833U 12053A   26193.24447966  .00000009  00000+0  00000+0 0  9996
2 38833  53.5892 142.5728 0181817  66.1687 295.6844  2.00567833 99941
